IRIDIUM 112             
1 41925U 17003J   24146.47076777  .00000521  00000+0  17889-3 0  9997
2 41925  86.3991  42.8640 0002422  79.4057 280.7412 14.34218440385387
IRIDIUM 111             
1 41926U 17003K   24146.45808112  .00000426  00000+0  14522-3 0  9997
2 41926  86.3993  42.9229 0002214  77.1150 283.0293 14.34216196385369
IRIDIUM 113             
1 42803U 17039A   24146.85665943  .00000635  00000+0  21950-3 0  9993
2 42803  86.3953 276.5184 0002016  89.3895 270.7531 14.34218232363352
IRIDIUM 123             
1 42804U 17039B   24146.82836726  .00000281  00000+0  93156-4 0  9995
2 42804  86.3939 308.0479 0002088  87.5124 272.6311 14.34217158362115
IRIDIUM 120             
1 42805U 17039C   24146.85031306  .00000593  00000+0  20482-3 0  9997
2 42805  86.3942 276.4011 0002176  96.5522 263.5921 14.34215949363348
IRIDIUM 115             
1 42806U 17039D   24146.87898128  .00000834  00000+0  24183-3 0  9993
2 42806  86.4480 276.4105 0002045  86.2107 273.9328 14.43274748365756
IRIDIUM 117             
1 42808U 17039F   24146.53025922  .00000553  00000+0  19054-3 0  9991
2 42808  86.3938 308.1386 0001905  88.1441 271.9973 14.34220465362090
